{
    "links": {
        "self": "http://www.neowsapp.com/rest/v1/neo/3952749?api_key=iIulBulltgU6a56xZRHN4H3l9WmuAYTsLGpBGhQ2"
    },
    "id": "3952749",
    "neo_reference_id": "3952749",
    "name": "(2019 YL3)",
    "designation": "2019 YL3",
    "nasa_jpl_url": "http://ssd.jpl.nasa.gov/sbdb.cgi?sstr=3952749",
    "absolute_magnitude_h": 27.7,
    "estimated_diameter": {
        "kilometers": {
            "estimated_diameter_min": 0.0076657557,
            "estimated_diameter_max": 0.0171411509
        },
        "meters": {
            "estimated_diameter_min": 7.6657557353,
            "estimated_diameter_max": 17.1411509231
        },
        "miles": {
            "estimated_diameter_min": 0.0047632783,
            "estimated_diameter_max": 0.0106510141
        },
        "feet": {
            "estimated_diameter_min": 25.1501180466,
            "estimated_diameter_max": 56.2373735944
        }
    },
    "is_potentially_hazardous_asteroid": false,
    "close_approach_data": [
        {
            "close_approach_date": "2008-12-30",
            "close_approach_date_full": "2008-Dec-30 21:27",
            "epoch_date_close_approach": 1230672420000,
            "relative_velocity": {
                "kilometers_per_second": "10.2307946946",
                "kilometers_per_hour": "36830.8609005704",
                "miles_per_hour": "22885.2646523572"
            },
            "miss_distance": {
                "astronomical": "1.8178029813",
                "lunar": "707.1253597257",
                "kilometers": "271939454.082129831",
                "miles": "168975341.2759444278"
            },
            "orbiting_body": "Juptr"
        },
        {
            "close_approach_date": "2019-12-30",
            "close_approach_date_full": "2019-Dec-30 16:16",
            "epoch_date_close_approach": 1577722560000,
            "relative_velocity": {
                "kilometers_per_second": "10.9761822992",
                "kilometers_per_hour": "39514.2562770808",
                "miles_per_hour": "24552.6221850561"
            },
            "miss_distance": {
                "astronomical": "0.0070230948",
                "lunar": "2.7319838772",
                "kilometers": "1050640.022888076",
                "miles": "652837.4377484088"
            },
            "orbiting_body": "Moon"
        },
        {
            "close_approach_date": "2019-12-30",
            "close_approach_date_full": "2019-Dec-30 18:39",
            "epoch_date_close_approach": 1577731140000,
            "relative_velocity": {
                "kilometers_per_second": "10.0367323823",
                "kilometers_per_hour": "36132.2365763693",
                "miles_per_hour": "22451.1666660223"
            },
            "miss_distance": {
                "astronomical": "0.0044649321",
                "lunar": "1.7368585869",
                "kilometers": "667944.331854627",
                "miles": "415041.3620907726"
            },
            "orbiting_body": "Earth"
        },
        {
            "close_approach_date": "2091-12-12",
            "close_approach_date_full": "2091-Dec-12 18:43",
            "epoch_date_close_approach": 3848323380000,
            "relative_velocity": {
                "kilometers_per_second": "9.0256498292",
                "kilometers_per_hour": "32492.3393851811",
                "miles_per_hour": "20189.4761029754"
            },
            "miss_distance": {
                "astronomical": "1.3918749856",
                "lunar": "541.4393693984",
                "kilometers": "208221533.152040672",
                "miles": "129382861.1376863936"
            },
            "orbiting_body": "Juptr"
        }
    ],
    "orbital_data": {
        "orbit_id": "4",
        "orbit_determination_date": "2020-01-08 06:23:28",
        "first_observation_date": "2019-12-28",
        "last_observation_date": "2020-01-01",
        "data_arc_in_days": 4,
        "observations_used": 36,
        "orbit_uncertainty": "7",
        "minimum_orbit_intersection": ".000727392",
        "jupiter_tisserand_invariant": "2.959",
        "epoch_osculation": "2459000.5",
        "eccentricity": ".658203176680181",
        "semi_major_axis": "2.803881318962619",
        "inclination": "3.811546386485103",
        "ascending_node_longitude": "99.39870604346144",
        "orbital_period": "1714.896316679995",
        "perihelion_distance": ".9583577277872075",
        "perihelion_argument": "21.18781036879272",
        "aphelion_distance": "4.649404910138031",
        "perihelion_time": "2458864.799097248505",
        "mean_anomaly": "28.48704292812011",
        "mean_motion": ".2099252278394024",
        "equinox": "J2000",
        "orbit_class": {
            "orbit_class_type": "APO",
            "orbit_class_description": "Near-Earth asteroid orbits which cross the Earth’s orbit similar to that of 1862 Apollo",
            "orbit_class_range": "a (semi-major axis) > 1.0 AU; q (perihelion) < 1.017 AU"
        }
    },
    "is_sentry_object": false
}